{
    "links": {
        "self": "http://www.neowsapp.com/rest/v1/neo/3757409?api_key=iIulBulltgU6a56xZRHN4H3l9WmuAYTsLGpBGhQ2"
    },
    "id": "3757409",
    "neo_reference_id": "3757409",
    "name": "(2016 PB40)",
    "designation": "2016 PB40",
    "nasa_jpl_url": "http://ssd.jpl.nasa.gov/sbdb.cgi?sstr=3757409",
    "absolute_magnitude_h": 24.6,
    "estimated_diameter": {
        "kilometers": {
            "estimated_diameter_min": 0.0319561887,
            "estimated_diameter_max": 0.0714562102
        },
        "meters": {
            "estimated_diameter_min": 31.9561886721,
            "estimated_diameter_max": 71.4562101727
        },
        "miles": {
            "estimated_diameter_min": 0.0198566489,
            "estimated_diameter_max": 0.0444008168
        },
        "feet": {
            "estimated_diameter_min": 104.8431420431,
            "estimated_diameter_max": 234.436392583
        }
    },
    "is_potentially_hazardous_asteroid": false,
    "close_approach_data": [
        {
            "close_approach_date": "1926-07-22",
            "close_approach_date_full": "1926-Jul-22 19:35",
            "epoch_date_close_approach": -1371011100000,
            "relative_velocity": {
                "kilometers_per_second": "15.403271353",
                "kilometers_per_hour": "55451.7768709778",
                "miles_per_hour": "34455.5776896362"
            },
            "miss_distance": {
                "astronomical": "0.3217675544",
                "lunar": "125.1675786616",
                "kilometers": "48135740.773349128",
                "miles": "29910162.3639008464"
            },
            "orbiting_body": "Earth"
        },
        {
            "close_approach_date": "2016-08-18",
            "close_approach_date_full": "2016-Aug-18 21:11",
            "epoch_date_close_approach": 1471554660000,
            "relative_velocity": {
                "kilometers_per_second": "8.4523510216",
                "kilometers_per_hour": "30428.4636777712",
                "miles_per_hour": "18907.064000224"
            },
            "miss_distance": {
                "astronomical": "0.0688177212",
                "lunar": "26.7700935468",
                "kilometers": "10294984.509773844",
                "miles": "6397006.7412292872"
            },
            "orbiting_body": "Earth"
        }
    ],
    "orbital_data": {
        "orbit_id": "6",
        "orbit_determination_date": "2017-04-06 08:24:31",
        "first_observation_date": "2016-08-11",
        "last_observation_date": "2016-09-03",
        "data_arc_in_days": 23,
        "observations_used": 29,
        "orbit_uncertainty": "8",
        "minimum_orbit_intersection": ".0565896",
        "jupiter_tisserand_invariant": "3.382",
        "epoch_osculation": "2457613.5",
        "eccentricity": ".5362164047608995",
        "semi_major_axis": "2.287927449408803",
        "inclination": "8.296150249724031",
        "ascending_node_longitude": "327.1247951670128",
        "orbital_period": "1264.042860557877",
        "perihelion_distance": "1.06110321813304",
        "perihelion_argument": "14.13279553004243",
        "aphelion_distance": "3.514751680684566",
        "perihelion_time": "2457631.259661226095",
        "mean_anomaly": "354.942040146825",
        "mean_motion": ".2848004693773725",
        "equinox": "J2000",
        "orbit_class": {
            "orbit_class_type": "AMO",
            "orbit_class_description": "Near-Earth asteroid orbits similar to that of 1221 Amor",
            "orbit_class_range": "1.017 AU < q (perihelion) < 1.3 AU"
        }
    },
    "is_sentry_object": false
}